NORAD_CAT_ID,OBJECT_NAME,OBJECT_TYPE,EPOCH,MEAN_MOTION,ECCENTRICITY,INCLINATION,RA_OF_ASC_NODE,ARG_OF_PERICENTER,MEAN_ANOMALY,BSTAR,MEAN_MOTION_DOT,MEAN_MOTION_DDOT,TLE_LINE0,TLE_LINE1,TLE_LINE2,SEMIMAJOR_AXIS,PERIOD,APOGEE,PERIGEE,DECAYED
52286.0,STARLINK-3802,PAYLOAD,2024-04-06 00:39:04,15.0884172,0.0001505,53.2183,13.5002,85.752,274.3644,0.00031663,4.755e-05,0.0,0 STARLINK-3802,1 52286U 22041AB  24097.02712970  .00004755  00000-0  31663-3 0  9995,2 52286  53.2183  13.5002 0001505  85.7520 274.3644 15.08841720109642,6917.875,95.437,540.781,538.699,0.0
52286.0,STARLINK-3802,PAYLOAD,2024-04-06 11:46:45,15.08843453,0.000142,53.2168,11.4148,89.7204,270.3951,4.2515e-05,3.89e-06,0.0,0 STARLINK-3802,1 52286U 22041AB  24097.49080691  .00000389  00000-0  42515-4 0  9992,2 52286  53.2168  11.4148 0001420  89.7204 270.3951 15.08843453108496,6917.87,95.437,540.717,538.752,0.0
52286.0,STARLINK-3802,PAYLOAD,2024-04-06 22:54:27,15.0883669,0.0001466,53.2169,9.334,89.3439,270.7721,-2.4357e-05,-6.76e-06,0.0,0 STARLINK-3802,1 52286U 22041AB  24097.95449074 -.00000676  00000-0 -24357-4 0  9992,2 52286  53.2169   9.3340 0001466  89.3439 270.7721 15.08836690108565,6917.891,95.438,540.77,538.741,0.0
52286.0,STARLINK-3802,PAYLOAD,2024-04-07 11:37:33,15.08833532,0.0001519,53.2183,6.9548,88.1455,271.9711,0.00011111,1.48e-05,0.0,0 STARLINK-3802,1 52286U 22041AB  24098.48441331  .00001480  00000-0  11111-3 0  9994,2 52286  53.2183   6.9548 0001519  88.1455 271.9711 15.08833532108641,6917.9,95.438,540.816,538.714,0.0
52286.0,STARLINK-3802,PAYLOAD,2024-04-07 22:45:14,15.08842044,0.0001578,53.2192,4.8724,95.072,265.0453,1.2685e-05,-8.6e-07,0.0,0 STARLINK-3802,1 52286U 22041AB  24098.94808878 -.00000086  00000-0  12685-4 0  9998,2 52286  53.2192   4.8724 0001578  95.0720 265.0453 15.08842044108714,6917.874,95.437,540.831,538.648,0.0
52286.0,STARLINK-3802,PAYLOAD,2024-04-08 03:31:23,15.08848144,0.0001553,53.2202,3.9795,103.5735,256.543,2.9567e-06,-2.41e-06,0.0,0 STARLINK-3802,1 52286U 22041AB  24099.14680482 -.00000241  00000-0  29567-5 0  9991,2 52286  53.2202   3.9795 0001553 103.5735 256.5430 15.08848144109963,6917.855,95.437,540.795,538.646,0.0
52286.0,STARLINK-3802,PAYLOAD,2024-04-09 00:11:25,15.08838018,0.0001418,53.2183,0.118,83.798,276.3173,0.00010862,1.441e-05,0.0,0 STARLINK-3802,1 52286U 22041AB  24100.00793018  .00001441  00000-0  10862-3 0  9997,2 52286  53.2183   0.1180 0001418  83.7980 276.3173 15.08838018108871,6917.886,95.438,540.732,538.77,0.0
52286.0,STARLINK-3802,PAYLOAD,2024-04-09 03:22:11,15.08841636,0.0001313,53.2183,359.5222,82.4293,277.6848,9.7713e-05,1.268e-05,0.0,0 STARLINK-3802,1 52286U 22041AB  24100.14040785  .00001268  00000-0  97713-4 0  9996,2 52286  53.2183 359.5222 0001313  82.4293 277.6848 15.08841636110119,6917.875,95.437,540.649,538.832,0.0
52286.0,STARLINK-3802,PAYLOAD,2024-04-09 09:43:44,15.08837137,0.0001235,53.2177,358.3313,85.3548,274.7585,2.7356e-05,1.48e-06,0.0,0 STARLINK-3802,1 52286U 22041AB  24100.40537252  .00000148  00000-0  27356-4 0  9997,2 52286  53.2177 358.3313 0001235  85.3548 274.7585 15.08837137108932,6917.889,95.438,540.608,538.9,0.0
52286.0,STARLINK-3802,PAYLOAD,2024-04-10 09:34:31,15.08841567,0.0001326,53.2187,353.8702,83.9617,276.1527,2.3491e-05,8.6e-07,0.0,0 STARLINK-3802,1 52286U 22041AB  24101.39897203  .00000086  00000-0  23491-4 0  9998,2 52286  53.2187 353.8702 0001326  83.9617 276.1527 15.08841567109088,6917.876,95.437,540.658,538.823,0.0
52286.0,STARLINK-3802,PAYLOAD,2024-04-10 20:42:13,15.08833222,0.0001445,53.2197,351.7895,87.9758,272.1399,-7.3771e-06,-4.05e-06,0.0,0 STARLINK-3802,1 52286U 22041AB  24101.86266012 -.00000405  00000-0 -73771-5 0  9992,2 52286  53.2197 351.7895 0001445  87.9758 272.1399 15.08833222110377,6917.901,95.438,540.766,538.766,0.0
52286.0,STARLINK-3802,PAYLOAD,2024-04-10 22:17:36,15.08828788,0.0001447,53.2192,351.4922,89.5639,270.5519,6.1902e-05,6.97e-06,0.0,0 STARLINK-3802,1 52286U 22041AB  24101.92890035  .00000697  00000-0  61902-4 0  9990,2 52286  53.2192 351.4922 0001447  89.5639 270.5519 15.08828788109160,6917.915,95.438,540.781,538.779,0.0
52286.0,STARLINK-3802,PAYLOAD,2024-04-10 23:52:59,15.08832046,0.0001412,53.219,351.1959,93.5859,266.5295,8.0564e-05,9.94e-06,0.0,0 STARLINK-3802,1 52286U 22041AB  24101.99513796  .00000994  00000-0  80564-4 0  9998,2 52286  53.2190 351.1959 0001412  93.5859 266.5295 15.08832046109175,6917.905,95.438,540.747,538.793,0.0
52286.0,STARLINK-3802,PAYLOAD,2024-04-11 22:08:23,15.08840011,0.0001434,53.2191,347.0338,99.8234,260.292,6.6582e-05,7.72e-06,0.0,0 STARLINK-3802,1 52286U 22041AB  24102.92249587  .00000772  00000-0  66582-4 0  9994,2 52286  53.2191 347.0338 0001434  99.8234 260.2920 15.08840011109314,6917.88,95.438,540.737,538.753,0.0
52286.0,STARLINK-3802,PAYLOAD,2024-04-12 01:19:09,15.08852576,0.0001329,53.2189,346.4389,99.6434,260.4708,-6.176e-05,-1.271e-05,0.0,0 STARLINK-3802,1 52286U 22041AB  24103.05497247 -.00001271  00000-0 -61760-4 0  9997,2 52286  53.2189 346.4389 0001329  99.6434 260.4708 15.08852576110556,6917.842,95.437,540.626,538.788,0.0
52286.0,STARLINK-3802,PAYLOAD,2024-04-12 21:59:10,15.08843107,0.0001224,53.2179,342.5724,89.507,270.6062,7.6478e-05,9.3e-06,0.0,0 STARLINK-3802,1 52286U 22041AB  24103.91609394  .00000930  00000-0  76478-4 0  9991,2 52286  53.2179 342.5724 0001224  89.5070 270.6062 15.08843107109467,6917.871,95.437,540.583,538.889,0.0
52286.0,STARLINK-3802,PAYLOAD,2024-04-12 23:34:33,15.08843363,0.0001248,53.2183,342.2753,88.6547,271.4588,7.6798e-05,9.35e-06,0.0,0 STARLINK-3802,1 52286U 22041AB  24103.98233377  .00000935  00000-0  76798-4 0  9992,2 52286  53.2183 342.2753 0001248  88.6547 271.4588 15.08843363110699,6917.87,95.437,540.598,538.872,0.0
52286.0,STARLINK-3802,PAYLOAD,2024-04-13 20:14:34,15.08841366,0.0001357,53.2188,338.4081,84.6398,275.4748,1.5413e-05,-4.3e-07,0.0,0 STARLINK-3802,1 52286U 22041AB  24104.84345751 -.00000043  00000-0  15413-4 0  9996,2 52286  53.2188 338.4081 0001357  84.6398 275.4748 15.08841366110824,6917.876,95.437,540.68,538.802,0.0
52286.0,STARLINK-3802,PAYLOAD,2024-04-13 21:49:57,15.0884254,0.0001475,53.2186,338.1117,78.0871,282.0286,2.2318e-05,6.7e-07,0.0,0 STARLINK-3802,1 52286U 22041AB  24104.90969711  .00000067  00000-0  22318-4 0  9998,2 52286  53.2186 338.1117 0001475  78.0871 282.0286 15.08842540109614,6917.873,95.437,540.758,538.717,0.0
52286.0,STARLINK-3802,PAYLOAD,2024-04-14 21:40:44,15.08845325,0.0001586,53.2193,333.6469,80.1104,280.0067,7.0635e-05,8.36e-06,0.0,0 STARLINK-3802,1 52286U 22041AB  24105.90329306  .00000836  00000-0  70635-4 0  9998,2 52286  53.2193 333.6469 0001586  80.1104 280.0067 15.08845325109763,6917.864,95.437,540.826,538.632,0.0
52286.0,STARLINK-3802,PAYLOAD,2024-04-15 15:09:59,15.08847256,0.0001611,53.2196,330.3778,86.7017,273.416,-7.0184e-06,-4e-06,0.0,0 STARLINK-3802,1 52286U 22041AB  24106.63193497 -.00000400  00000-0 -70184-5 0  9998,2 52286  53.2196 330.3778 0001611  86.7017 273.4160 15.08847256109874,6917.858,95.437,540.838,538.609,0.0
52286.0,STARLINK-3802,PAYLOAD,2024-04-15 21:31:31,15.0885008,0.0001537,53.22,329.1927,95.677,264.4398,3.7264e-05,3.05e-06,0.0,0 STARLINK-3802,1 52286U 22041AB  24106.89689036  .00000305  00000-0  37264-4 0  9998,2 52286  53.2200 329.1927 0001537  95.6770 264.4398 15.08850080109911,6917.85,95.437,540.778,538.651,0.0
52286.0,STARLINK-3802,PAYLOAD,2024-04-16 19:46:55,15.0884752,0.0001165,53.2171,325.0299,92.0511,268.0614,2.5476e-05,1.18e-06,0.0,0 STARLINK-3802,1 52286U 22041AB  24107.82425188  .00000118  00000-0  25476-4 0  9992,2 52286  53.2171 325.0299 0001165  92.0511 268.0614 15.08847520111274,6917.857,95.437,540.528,538.916,0.0
52286.0,STARLINK-3802,PAYLOAD,2024-04-16 21:22:17,15.0885896,0.0001326,53.2186,324.7338,112.7077,247.4055,0.00016889,2.402e-05,0.0,0 STARLINK-3802,1 52286U 22041AB  24107.89048069  .00002402  00000-0  16889-3 0  9993,2 52286  53.2186 324.7338 0001326 112.7077 247.4055 15.08858960110062,6917.822,95.436,540.605,538.77,0.0
52286.0,STARLINK-3802,PAYLOAD,2024-04-17 00:33:03,15.08857343,0.0001345,53.2171,324.1313,111.0951,249.0185,0.00011452,1.536e-05,0.0,0 STARLINK-3802,1 52286U 22041AB  24108.02296074  .00001536  00000-0  11452-3 0  9998,2 52286  53.2171 324.1313 0001345 111.0951 249.0185 15.08857343111301,6917.827,95.436,540.623,538.762,0.0
52286.0,STARLINK-3802,PAYLOAD,2024-04-17 19:37:43,15.08828726,0.0001202,53.2167,320.5687,95.1355,264.9774,-5.0334e-05,-1.089e-05,0.0,0 STARLINK-3802,1 52286U 22041AB  24108.81786733 -.00001089  00000-0 -50334-4 0  9999,2 52286  53.2167 320.5687 0001202  95.1355 264.9774 15.08828726111428,6917.915,95.438,540.611,538.948,0.0
52286.0,STARLINK-3802,PAYLOAD,2024-04-18 21:03:52,15.08853253,0.0001132,53.2164,315.8073,111.9795,248.1317,0.000134,1.846e-05,0.0,0 STARLINK-3802,1 52286U 22041AB  24109.87769209  .00001846  00000-0  13400-3 0  9996,2 52286  53.2164 315.8073 0001132 111.9795 248.1317 15.08853253111585,6917.84,95.437,540.488,538.922,0.0
52286.0,STARLINK-3802,PAYLOAD,2024-04-18 22:39:15,15.08852678,0.0001136,53.2165,315.5101,105.0566,255.0552,0.00013189,1.813e-05,0.0,0 STARLINK-3802,1 52286U 22041AB  24109.94393237  .00001813  00000-0  13189-3 0  9996,2 52286  53.2165 315.5101 0001136 105.0566 255.0552 15.08852678110373,6917.842,95.437,540.493,538.921,0.0
52286.0,STARLINK-3802,PAYLOAD,2024-04-19 00:14:38,15.08851364,0.0001237,53.217,315.2129,99.5976,260.5156,0.00012372,1.682e-05,0.0,0 STARLINK-3802,1 52286U 22041AB  24110.01017286  .00001682  00000-0  12372-3 0  9990,2 52286  53.2170 315.2129 0001237  99.5976 260.5156 15.08851364110383,6917.846,95.437,540.566,538.855,0.0
52286.0,STARLINK-3802,PAYLOAD,2024-04-19 20:54:40,15.08852785,0.000136,53.2179,311.3469,76.2828,283.8315,0.00040187,6.116e-05,0.0,0 STARLINK-3802,1 52286U 22041AB  24110.87129793  .00006116  00000-0  40187-3 0  9993,2 52286  53.2179 311.3469 0001360  76.2828 283.8315 15.08852785111734,6917.841,95.437,540.647,538.765,0.0
